[{"OBJECT_NAME":"ONEWEB-0538","OBJECT_ID":"2023-043B","EPOCH":"2026-03-09T22:28:10.742016","MEAN_MOTION":13.16593549,"ECCENTRICITY":0.00019125,"INCLINATION":87.9002,"RA_OF_ASC_NODE":248.5147,"ARG_OF_PERICENTER":94.6574,"MEAN_ANOMALY":265.4776,"EPHEMERIS_TYPE":0,"CLASSIFICATION_TYPE":"U","NORAD_CAT_ID":56047,"ELEMENT_SET_NO":999,"REV_AT_EPOCH":14591,"BSTAR":0.00019303062,"MEAN_MOTION_DOT":8.7e-7,"MEAN_MOTION_DDOT":0},{"OBJECT_NAME":"NOVA 3","OBJECT_ID":"1984-110A","EPOCH":"2026-03-09T22:56:57.313824","MEAN_MOTION":13.23056942,"ECCENTRICITY":0.00334622,"INCLINATION":90.1127,"RA_OF_ASC_NODE":81.5188,"ARG_OF_PERICENTER":89.1357,"MEAN_ANOMALY":332.5718,"EPHEMERIS_TYPE":0,"CLASSIFICATION_TYPE":"U","NORAD_CAT_ID":15362,"ELEMENT_SET_NO":999,"REV_AT_EPOCH":99852,"BSTAR":0.00012783435,"MEAN_MOTION_DOT":6.3e-7,"MEAN_MOTION_DDOT":0}]
